{"type":"FeatureCollection","features":[{"type":"Feature","id":"DEMO-001","properties":{"id":"DEMO-001","community_number":"D001","community_name_en":"Demo Community A","population":23616,"density_sq_km":8747,"plot_square_sq_km":2.7},"geometry":{"type":"Polygon","coordinates":[[[55.263,25.194],[55.278,25.194],[55.278,25.205],[55.263,25.205],[55.263,25.194]]]}},{"type":"Feature","id":"DEMO-002","properties":{"id":"DEMO-002","community_number":"D002","community_name_en":"Demo Community B","population":87500,"density_sq_km":1850,"plot_square_sq_km":47.3},"geometry":{"type":"Polygon","coordinates":[[[55.278,25.194],[55.292,25.194],[55.292,25.207],[55.278,25.207],[55.278,25.194]]]}},{"type":"Feature","id":"DEMO-003","properties":{"id":"DEMO-003","community_number":"D003","community_name_en":"Demo Community C","population":162400,"density_sq_km":620,"plot_square_sq_km":261.9},"geometry":{"type":"Polygon","coordinates":[[[55.263,25.181],[55.282,25.181],[55.282,25.194],[55.263,25.194],[55.263,25.181]]]}}]}
